TIANQI-15               
1 49027U 21065B   26068.81163741  .00006722  00000+0  41179-3 0  9990
2 49027  34.9979 108.2420 0007067 250.7766 109.2180 15.09508085254244
STARLINK-5191           
1 54763U 22175F   26068.20456488  .00000179  00000+0  29330-4 0  9998
2 54763  53.2177  46.4475 0001403  87.5200 272.5953 15.08840131179845
